COSMOS 1408             
1 13552U 82092A   21319.03826954  .00002024  00000-0  69413-4 0  9995
2 13552  82.5637 123.6906 0018570 108.1104 252.2161 15.29390138142807
